[
    {
        "Altitude(m)": 617710.6804781834,
        "Argument of Periapsis(deg)": 0.0,
        "Eccentricity": 0.0,
        "Inclination(deg)": 60.0,
        "Latitude(deg)": -41.10277064240816,
        "Longitude(deg)": -15.033254431000627,
        "Mean Anomaly(deg)": -49.09089999999997,
        "RAAN(deg)": 114.99999999999999,
        "Satellite Name": "Test1 525",
        "Satellite Number": 525,
        "Semi-Major Axis(m)": 6980739.136638005,
        "Time(s)": 0
    },
    {
        "Altitude(m)": 617517.9784463011,
        "Argument of Periapsis(deg)": 0.00010418945913296404,
        "Eccentricity": 0.0,
        "Inclination(deg)": 60.0,
        "Latitude(deg)": -40.63697644709611,
        "Longitude(deg)": -14.536461894660462,
        "Mean Anomaly(deg)": -48.470793854538115,
        "RAAN(deg)": 114.99957995086024,
        "Satellite Name": "Test1 525",
        "Satellite Number": 525,
        "Semi-Major Axis(m)": 6980739.136638005,
        "Time(s)": 10
    }
]